{
  "type": "FeatureCollection",
  "features": [
    {
      "type": "Feature",
      "geometry": {
        "type": "Polygon",
        "coordinates": [
          [
            [
              15.5012,
              58.3546
            ],
            [
              15.5035,
              58.3397
            ],
            [
              15.5265,
              58.3379
            ],
            [
              15.5265,
              58.3505
            ],
            [
              15.5111,
              58.3578
            ],
            [
              15.5012,
              58.3546
            ]
          ]
        ]
      },
      "properties": {
        "name": "area",
        "type": "POLYGON",
        "points": 6
      }
    },
    {
      "type": "Feature",
      "geometry": {
        "type": "Polygon",
        "coordinates": [
          [
            [
              15.4505,
              58.3275
            ],
            [
              15.4387,
              58.3112
            ],
            [
              15.4532,
              58.3075
            ],
            [
              15.4777,
              58.3071
            ],
            [
              15.4795,
              58.3234
            ],
            [
              15.4645,
              58.332
            ],
            [
              15.455,
              58.3324
            ],
            [
              15.4505,
              58.3275
            ]
          ]
        ]
      },
      "properties": {
        "name": "area2",
        "type": "POLYGON",
        "points": 7
      }
    },
    {
      "type": "Feature",
      "geometry": {
        "type": "Polygon",
        "coordinates": [
          [
            [
              15.4786,
              58.3677
            ],
            [
              15.4722,
              58.3619
            ],
            [
              15.4767,
              58.3501
            ],
            [
              15.4908,
              58.3447
            ],
            [
              15.4899,
              58.3555
            ],
            [
              15.4903,
              58.365
            ],
            [
              15.4786,
              58.3677
            ]
          ]
        ]
      },
      "properties": {
        "name": "area3",
        "type": "POLYGON",
        "points": 7
      }
    },
    {
      "type": "Feature",
      "geometry": {
        "type": "Polygon",
        "coordinates": [
          [
            [
              15.5066,
              58.3854
            ],
            [
              15.5062,
              58.3705
            ],
            [
              15.5247,
              58.3659
            ],
            [
              15.5347,
              58.3795
            ],
            [
              15.5207,
              58.3881
            ],
            [
              15.5293,
              58.3904
            ],
            [
              15.5066,
              58.3854
            ]
          ]
        ]
      },
      "properties": {
        "name": "area4",
        "type": "POLYGON",
        "points": 7
      }
    },
    {
      "type": "Feature",
      "geometry": {
        "type": "Polygon",
        "coordinates": [
          [
            [
              15.5093,
              58.3048
            ],
            [
              15.5116,
              58.2912
            ],
            [
              15.5265,
              58.2872
            ],
            [
              15.532,
              58.3003
            ],
            [
              15.5188,
              58.3071
            ],
            [
              15.517,
              58.3175
            ],
            [
              15.5093,
              58.3048
            ]
          ]
        ]
      },
      "properties": {
        "name": "area5",
        "type": "POLYGON",
        "points": 7
      }
    },
    {
      "type": "Feature",
      "geometry": {
        "type": "LineString",
        "coordinates": [
          [
            15.4541,
            58.3021
          ],
          [
            15.4686,
            58.2967
          ],
          [
            15.4695,
            58.2799
          ],
          [
            15.4713,
            58.265
          ],
          [
            15.4745,
            58.2609
          ]
        ]
      },
      "properties": {
        "name": "draw",
        "type": "LINE",
        "points": 5
      }
    },
    {
      "type": "Feature",
      "geometry": {
        "type": "LineString",
        "coordinates": [
          [
            15.465,
            58.3107
          ],
          [
            15.4835,
            58.303
          ],
          [
            15.4817,
            58.2777
          ],
          [
            15.4953,
            58.2709
          ],
          [
            15.4985,
            58.289
          ]
        ]
      },
      "properties": {
        "name": "draw2",
        "type": "LINE",
        "points": 5
      }
    },
    {
      "type": "Feature",
      "geometry": {
        "type": "Polygon",
        "coordinates": [
          [
            [
              15.5551,
              58.3216
            ],
            [
              15.5478,
              58.303
            ],
            [
              15.5668,
              58.2989
            ],
            [
              15.5799,
              58.3116
            ],
            [
              15.57,
              58.327
            ],
            [
              15.5596,
              58.3333
            ],
            [
              15.5551,
              58.3216
            ]
          ]
        ]
      },
      "properties": {
        "name": "draw4",
        "type": "POLYGON",
        "points": 7
      }
    }
  ]
}